STARLINK-1300           
1 45374U 20019Q   21206.89676113  .00000198  00000-0  32184-4 0  9997
2 45374  53.0565 183.4239 0001045  66.9815 293.1285 15.06395486 75340
STARLINK-1302           
1 45375U 20019R   21206.97784465  .00000502  00000-0  52568-4 0  9994
2 45375  53.0542 183.0586 0000907  72.8013 287.3075 15.06399307 75358
STARLINK-1304           
1 45376U 20019S   21206.66454959 -.00001229  00000-0 -63658-4 0  9994
2 45376  53.0538 184.4649 0000670  70.9600 289.1461 15.06395961 75303
STARLINK-1305           
1 45377U 20019T   21207.35381898 -.00000856  00000-0 -38593-4 0  9998
2 45377  53.0549 181.3742 0000828  43.5081 316.5973 15.06400331 75413
STARLINK-1310           
1 45378U 20019U   21206.67932109  .00000367  00000-0  43522-4 0  9993
2 45378  53.0541 184.3998 0001500  56.7963 303.3169 15.06391875 75317
STARLINK-1319           
1 45379U 20019V   21206.94836328 -.00001294  00000-0 -67995-4 0  9992
2 45379  53.0551 183.1963 0001057  45.2401 314.8674 15.06402023 75355
STARLINK-1207           
1 45380U 20019W   21206.88018403  .00000846  00000-0  75638-4 0  9996
2 45380  53.0546 163.4971 0000926  36.5715 323.5337 15.06405624 75618
STARLINK-1258           
1 45381U 20019X   21206.89122565 -.00005888  00000-0 -37642-3 0  9998
2 45381  53.0549 163.4531 0002187  58.0723 302.0478 15.06426400 75616
STARLINK-1264           
1 45382U 20019Y   21207.13450793 -.00000863  00000-0 -39032-4 0  9998
2 45382  53.0542 162.3576 0001136  71.8845 288.2267 15.06396204 75471
STARLINK-1266           
1 45383U 20019Z   21207.34828026  .00000718  00000-0  67063-4 0  9992
2 45383  53.0560 161.3981 0001479  55.9884 304.1245 15.06400545 75688
STARLINK-1267           
1 45384U 20019AA  21207.13819227 -.00000875  00000-0 -39844-4 0  9995
2 45384  53.0524 162.3343 0001066  58.3663 301.7430 15.06394097 75667
STARLINK-1272           
1 45386U 20019AC  21207.14188876  .00000589  00000-0  58427-4 0  9995
2 45386  53.0565 162.3244 0001133  33.2271 326.8789 15.06390492 75666
STARLINK-1274           
1 45387U 20019AD  21207.36304678  .00001552  00000-0  12305-3 0  9995
2 45387  53.0548 161.3344 0001254  36.8769 323.2306 15.06407320 75668
STARLINK-1280           
1 45388U 20019AE  21207.06631670  .00000644  00000-0  62135-4 0  9996
2 45388  53.0532 182.6601 0000901  62.7115 297.3965 15.06396535 75369
STARLINK-1283           
1 45389U 20019AF  21206.91334643 -.00001406  00000-0 -75557-4 0  9991
2 45389  53.0530 163.3443 0000822  45.6523 314.4533 15.06402551 75620
STARLINK-1284           
1 45390U 20019AG  21206.88754311 -.00000809  00000-0 -35450-4 0  9991
2 45390  53.0546 163.4649 0001130  61.7507 298.3596 15.06398645 75618
STARLINK-1289           
1 45391U 20019AH  21206.90229511 -.00001320  00000-0 -69753-4 0  9996
2 45391  53.0542 163.3950 0000996  67.4376 292.6718 15.06396716 75345
STARLINK-1290           
1 45392U 20019AJ  21207.33717902  .00002708  00000-0  19638-3 0  9996
2 45392  52.9934 159.5046 0001702  61.5945 298.5215 15.07211894 75414
STARLINK-1291           
1 45393U 20019AK  21206.60004354  .00001408  00000-0  11341-3 0  9995
2 45393  53.0556 164.7585 0000934  31.1731 328.9313 15.06393575 75339
STARLINK-1292           
1 45394U 20019AL  21207.29300328 -.00000727  00000-0 -29899-4 0  9995
2 45394  53.0559 161.6449 0001191  54.0966 306.0134 15.06403165 75412
STARLINK-1297           
1 45395U 20019AM  21206.85806585 -.00000753  00000-0 -31670-4 0  9992
2 45395  53.0547 163.6001 0001562  64.7392 295.3759 15.06390230 74790
STARLINK-1303           
1 45396U 20019AN  21207.30405393  .00000057  00000-0  22730-4 0  9998
2 45396  53.0555 161.5986 0001287  57.0764 303.0348 15.06396236 75391
STARLINK-1307           
1 45397U 20019AP  21206.58528943  .00000951  00000-0  82707-4 0  9998
2 45397  53.0556 164.8246 0001026  69.0413 291.0686 15.06390561 75399
STARLINK-1312           
1 45398U 20019AQ  21206.97601470  .00001258  00000-0  10332-3 0  9994
2 45398  53.0553 163.0669 0001068  62.7250 297.3847 15.06398160 75382
STARLINK-1255           
1 45399U 20019AR  21206.88478628 -.00000948  00000-0 -44773-4 0  9996
2 45399  53.0555 153.4817 0001305  58.4795 301.6322 15.06391047 75567
STARLINK-1213           
1 45400U 20019AS  21206.83318386 -.00000955  00000-0 -45244-4 0  9990
2 45400  53.0566 153.7081 0001647  61.9223 298.1932 15.06386855 75481
STARLINK-1256           
1 45401U 20019AT  21206.36505774 -.00000259  00000-0  15218-5 0  9993
2 45401  53.0561 155.8043 0001275  62.7932 297.3187 15.06403885 75487
STARLINK-1257           
1 45402U 20019AU  21206.89215116  .00001125  00000-0  94364-4 0  9990
2 45402  53.0540 153.4400 0001185  57.8251 302.2853 15.06404771 75576
STARLINK-1259           
1 45403U 20019AV  21206.84055470 -.00000247  00000-0  23420-5 0  9992
2 45403  53.0542 153.6748 0001564  65.2269 294.8883 15.06400698 75550
STARLINK-1260           
1 45404U 20019AW  21207.31603208 -.00000900  00000-0 -41515-4 0  9995
2 45404  53.0551 151.5411 0001202  64.1402 295.9711 15.06393377 75536
STARLINK-1263           
1 45405U 20019AX  21207.36763649  .00001230  00000-0  10147-3 0  9998
2 45405  53.0547 151.3094 0001496  67.7673 292.3474 15.06398925 75543
STARLINK-1265           
1 45406U 20019AY  21206.84424447  .00002066  00000-0  15752-3 0  9996
2 45406  53.0535 153.6548 0001075  54.8666 305.2424 15.06412847 75462
STARLINK-1275           
1 45407U 20019AZ  21207.32341196 -.00000422  00000-0 -94537-5 0  9996
2 45407  53.0544 151.5016 0001615  80.5581 279.5591 15.06396388 75539
STARLINK-1278           
1 45408U 20019BA  21207.07000163 -.00000910  00000-0 -42217-4 0  9994
2 45408  53.0550 182.6465 0000959  52.9203 307.1874 15.06402587 75085
STARLINK-1282           
1 45409U 20019BB  21207.33077566  .00000841  00000-0  75386-4 0  9999
2 45409  53.0549 151.4710 0001523  64.6803 295.4343 15.06397508 75542
STARLINK-1285           
1 45410U 20019BC  21206.85572074  .00020154  00000-0  15871-3 0  9992
2 45410  53.0582 143.6436 0001005  78.1772 281.9358 15.71481946 75592
STARLINK-1293           
1 45411U 20019BD  21207.34552058  .00001442  00000-0  11572-3 0  9991
2 45411  53.0535 151.4058 0001699  62.6324 297.4838 15.06395115 75548
STARLINK-1296           
1 45412U 20019BE  21206.84792693 -.00000982  00000-0 -47041-4 0  9998
2 45412  53.0546 153.6373 0001533  76.9472 283.1688 15.06392487 75469
STARLINK-1298           
1 45413U 20019BF  21206.87740104  .00000577  00000-0  57656-4 0  9993
2 45413  53.0552 153.5070 0001379  58.7227 301.3897 15.06401119 75563
STARLINK-1309           
1 45414U 20019BG  21207.12805346 -.00000794  00000-0 -34408-4 0  9996
2 45414  53.0550 152.3831 0001577  58.4237 301.6906 15.06396828 75511
STARLINK-1316           
1 45415U 20019BH  21207.28654348  .00001032  00000-0  88167-4 0  9993
2 45415  53.0555 151.6775 0001426  69.9654 290.1489 15.06400342 75558
STARLINK-1318           
1 45416U 20019BJ  21207.31971535  .00000862  00000-0  76732-4 0  9993
2 45416  53.0547 151.5224 0001530  68.2237 291.8914 15.06397806 75543
STARLINK-1286           
1 45417U 20019BK  21206.66086398 -.00001258  00000-0 -65586-4 0  9992
2 45417  53.0543 184.4814 0000694  62.8842 297.2218 15.06395535 75298
STARLINK-1299           
1 45418U 20019BL  21206.81350926  .00002314  00000-0  20171-3 0  9993
2 45418  53.0000 198.2019 0000720  73.0102 287.0963 15.00665154 74845
STARLINK-1308           
1 45419U 20019BM  21207.38701444  .00000623  00000-0  60740-4 0  9990
2 45419  53.0546 181.2244 0001145  70.0412 290.0700 15.06388410 75157
ONEWEB-0066             
1 45424U 20020A   21206.73951135 -.00000380  00000-0 -11090-2 0  9994
2 45424  87.8902  16.4357 0002301  68.6110 291.5263 13.11416628 68408
ONEWEB-0067             
1 45425U 20020B   21206.91825982  .00000498  00000-0  13706-2 0  9999
2 45425  87.8900  16.4076 0002044  89.5727 270.5636 13.11419345 68494
ONEWEB-0080             
1 45426U 20020C   21207.47850068 -.00000013  00000-0 -72652-4 0  9997
2 45426  87.8902  16.2797 0001482  95.4740 264.6557 13.11415844 68532
ONEWEB-0090             
1 45427U 20020D   21207.49374142 -.00000515  00000-0 -14892-2 0  9991
2 45427  87.8911  16.3017 0001773  92.6377 267.4954 13.11415537 68505
ONEWEB-0061             
1 45428U 20020E   21207.45016043  .00000408  00000-0  11162-2 0  9997
2 45428  87.8907  16.2723 0002068  88.4498 271.6867 13.11419602 68449
ONEWEB-0081             
1 45429U 20020F   21206.97488837 -.00000161  00000-0 -48866-3 0  9998
2 45429  87.8917  16.3390 0002360  83.0485 277.0912 13.11429043 68490
ONEWEB-0069             
1 45430U 20020G   21206.73296905 -.00000580  00000-0 -16718-2 0  9992
2 45430  87.8902  16.4426 0001858  90.0800 270.0541 13.11415988 68390
ONEWEB-0031             
1 45431U 20020H   21206.70681535  .00000190  00000-0  49897-3 0  9997
2 45431  87.8899  16.4421 0001846  97.9422 262.1915 13.11414432 68372
ONEWEB-0027             
1 45432U 20020J   21206.85509643 -.00000699  00000-0 -18347-2 0  9994
2 45432  87.9153   1.2554 0001674  86.0619 274.0704 13.17646323 70982
ONEWEB-0064             
1 45433U 20020K   21207.46760024  .00000389  00000-0  10606-2 0  9999
2 45433  87.8905  16.3020 0001671  64.0682 296.0618 13.11420062 68513
ONEWEB-0018             
1 45434U 20020L   21207.42182290 -.00000458  00000-0 -13276-2 0  9994
2 45434  87.8902  16.2894 0001873  98.2069 261.9271 13.11416990 68455
ONEWEB-0083             
1 45435U 20020M   21207.48721772 -.00000309  00000-0 -90661-3 0  9994
2 45435  87.8903  16.2823 0001880  93.5443 266.5900 13.11415500 68503
ONEWEB-0095             
1 45436U 20020N   21206.70899896  .00000095  00000-0  23176-3 0  9999
2 45436  87.8902  16.4381 0001567  89.2339 270.8968 13.11415261 68395
ONEWEB-0092             
1 45437U 20020P   21207.06650657  .00000398  00000-0  10879-2 0  9991
2 45437  87.8914  16.3155 0002096 105.4649 254.6711 13.11416319 68559
